CORAL                   
1 67684U 98067YA  26093.80460641  .00133892  00000+0  16648-2 0  9992
2 67684  51.6284 305.8684 0013485 268.4789  91.4659 15.58915220  8705
GXIBA-1                 
1 67685U 98067YB  26093.81336782  .00075333  00000+0  11093-2 0  9996
2 67685  51.6298 306.6778 0012439 275.1790  84.7781 15.54660633  8699
UITMSAT-2               
1 67686U 98067YC  26093.79480319  .00085147  00000+0  12028-2 0  9993
2 67686  51.6307 306.5559 0009467 249.4305 110.5671 15.55773967  8692
HMU-SAT2                
1 67687U 98067YD  26093.88358982  .00071531  00000+0  10661-2 0  9997
2 67687  51.6307 306.3995 0008998 252.1797 107.8212 15.54393032  8622
LEOPARD                 
1 67688U 98067YE  26093.80326683  .00076143  00000+0  10982-2 0  9993
2 67688  51.6306 306.6128 0009236 249.5445 110.4555 15.55259646  8611
CREW DRAGON 12          
1 67796U 26031A   26093.87567842  .00012431  00000+0  23534-3 0  9994
2 67796  51.6327 307.8415 0006252 268.9169  91.1103 15.48754008560205
PROGRESS-MS 33          
1 68319U 26058A   26093.87567842  .00012431  00000+0  23534-3 0  9995
2 68319  51.6327 307.8415 0006252 268.9169  91.1103 15.48754008  1252
